[{"OBJECT_NAME":"ICESAT-2","OBJECT_ID":"2018-070A","EPOCH":"2026-03-09T22:54:12.225888","MEAN_MOTION":15.28328617,"ECCENTRICITY":0.00038245,"INCLINATION":91.9993,"RA_OF_ASC_NODE":264.2397,"ARG_OF_PERICENTER":123.8941,"MEAN_ANOMALY":236.2673,"EPHEMERIS_TYPE":0,"CLASSIFICATION_TYPE":"U","NORAD_CAT_ID":43613,"ELEMENT_SET_NO":999,"REV_AT_EPOCH":41730,"BSTAR":0.00014022643,"MEAN_MOTION_DOT":3.87e-5,"MEAN_MOTION_DDOT":0},{"OBJECT_NAME":"STARLINK-33957","OBJECT_ID":"2025-095H","EPOCH":"2026-03-08T09:03:27.123264","MEAN_MOTION":15.2757745,"ECCENTRICITY":0.00015399,"INCLINATION":43.0035,"RA_OF_ASC_NODE":183.9355,"ARG_OF_PERICENTER":241.4171,"MEAN_ANOMALY":118.6526,"EPHEMERIS_TYPE":0,"CLASSIFICATION_TYPE":"U","NORAD_CAT_ID":63897,"ELEMENT_SET_NO":999,"REV_AT_EPOCH":4757,"BSTAR":0.0018583728,"MEAN_MOTION_DOT":0.00051228,"MEAN_MOTION_DDOT":0}]
